LEMUR-2-VALHALLA        
1 58900U 24022B   26187.11394680  .00016850  00000+0  41937-3 0  9994
2 58900  97.4091  37.3384 0010110  54.0939 306.1244 15.40286731135180
LEMUR-2-CAEL            
1 58903U 24022E   26187.17244902  .00017904  00000+0  42629-3 0  9994
2 58903  97.4074  38.3674 0008082  40.2046 319.9797 15.41636766135260
LEMUR-2-JOHNNYTRUONG    
1 59146U 24043BA  26186.93050260  .00043923  00000+0  50315-3 0  9993
2 59146  97.5395 339.8154 0004448 120.9550 239.2145 15.61990755130963
LEMUR-2-TOMATOKECHUP    
1 60471U 24149D   26187.19245734  .00011416  00000+0  32314-3 0  9995
2 60471  97.3790 269.2922 0002876 138.8733 221.2729 15.36452734105082
LEMUR-2-STELLA          
1 60533U 24149BT  26187.14136471  .00011150  00000+0  64835-3 0  9994
2 60533  97.6729 269.6836 0001246 106.9534 253.1833 15.12243072103365
LEMUR-2-MARHISYAM       
1 60536U 24149BW  26187.19494461  .00010677  00000+0  63118-3 0  9994
2 60536  97.6870 270.2058 0002871  83.2434 276.9123 15.11655906103356
LEMUR-2-AHMED-ASRAR     
1 60576U 24149DN  26186.81372956  .00013114  00000+0  74248-3 0  9995
2 60576  97.6997 271.9881 0000415 275.0383  85.0800 15.13163573103388
LEMUR-2-LLOYD           
1 60577U 24149DP  26187.20079730  .00009691  00000+0  60592-3 0  9996
2 60577  97.6737 268.3441 0005043  93.4282 266.7523 15.09635414103265
LEMUR-2-SQUIRRELCOMM    
1 60578U 24149DQ  26187.17583308  .00007246  00000+0  48284-3 0  9992
2 60578  97.6702 268.0291 0004922 359.7505   0.3719 15.07381618103260
LEMUR-2-SIERRINI        
1 60579U 24149DR  26187.15601692  .00011740  00000+0  69852-3 0  9996
2 60579  97.6837 269.8365 0006597 113.4903 246.7020 15.11383664103324
LEMUR-2-WILSON          
1 62694U 25009CP  26187.16776308  .00003349  00000+0  30951-3 0  9994
2 62694  97.7019 265.2997 0002654   8.5969 351.5297 14.95253729 80193
LEMUR-2-STAR-FOX        
1 62696U 25009CR  26187.20463988  .00007286  00000+0  54907-3 0  9999
2 62696  97.6928 268.6782 0003531  71.7740 288.3869 15.02771340 80416
LEMUR-2-ARIANNA         
1 62699U 25009CU  26187.20310691  .00007087  00000+0  53415-3 0  9996
2 62699  97.6866 268.4362 0003872  76.7600 283.4057 15.02770802 80417
LEMUR-2-ALISIA          
1 62706U 25009DB  26187.17739442  .00009054  00000+0  67552-3 0  9993
2 62706  97.6949 269.2183 0003349 158.7297 201.4068 15.03079135103016
LEMUR-2-ROUNDTRIPPER    
1 62711U 25009DG  26187.18889186  .00009590  00000+0  69563-3 0  9990
2 62711  97.7222 269.8431 0004515  85.1378 275.0364 15.04126128 80485
LEMUR-2-MYNAMEISJEFF    
1 62712U 25009DH  26187.18732868  .00009639  00000+0  69930-3 0  9997
2 62712  97.7273 270.2338 0003594 118.7243 241.4344 15.04118145 80489
